GSAT0101 (PRN E11)      
1 37846U 11060A   21164.87532251 -.00000068  00000-0  00000-0 0  9998
2 37846  56.8357  31.3784 0003660  27.2835 332.7989  1.70475344 59934
GSAT0102 (PRN E12)      
1 37847U 11060B   21165.09779347 -.00000067  00000-0  00000-0 0  9992
2 37847  56.8367  31.3718 0003697 353.4661 189.4354  1.70475562 59940
GSAT0103 (PRN E19)      
1 38857U 12055A   21163.15661528  .00000070  00000-0  00000-0 0  9998
2 38857  55.0465 151.8830 0005200 271.3224  88.5965  1.70473798 53793
GSAT0104 (PRN E20)      
1 38858U 12055B   21164.30053453  .00000071  00000-0  00000-0 0  9990
2 38858  55.0470 151.8530 0002844 276.1968  83.7472  1.70474102 53819
GSAT0201 (PRN E18)      
1 40128U 14050A   21165.61108758 -.00000081  00000-0  00000-0 0  9996
2 40128  50.4769 346.9355 1649232 111.2992 267.1177  1.85518785 44394
GSAT0202 (PRN E14)      
1 40129U 14050B   21165.87344183 -.00000080  00000-0  00000+0 0  9997
2 40129  50.5077 345.9743 1646457 112.1164 266.1952  1.85519454 46537
GSAT0203 (PRN E26)      
1 40544U 15017A   21164.07037161 -.00000070  00000-0  00000-0 0  9998
2 40544  56.6295  31.4843 0001422 269.5590  90.4884  1.70474659 38007
GSAT0204 (PRN E22)      
1 40545U 15017B   21163.73692129 -.00000070  00000-0  00000-0 0  9992
2 40545  56.6347  31.5043 0001003 225.7493 134.3064  1.70475739  1042
GSAT0205 (PRN E24)      
1 40889U 15045A   21165.26478165 -.00000006  00000-0  00000-0 0  9995
2 40889  55.8769 272.1296 0003361  14.3686 345.6770  1.70475719 35833
GSAT0206 (PRN E30)      
1 40890U 15045B   21165.48427055 -.00000006  00000-0  00000-0 0  9993
2 40890  55.8761 272.1198 0001667 356.0420   3.9933  1.70475632 35869
GSAT0209 (PRN E09)      
1 41174U 15079A   21165.65865030  .00000073  00000-0  00000+0 0  9996
2 41174  55.0625 151.5150 0005768 305.3186  54.6042  1.70473185 34185
GSAT0208 (PRN E08)      
1 41175U 15079B   21165.87832336  .00000074  00000-0  00000-0 0  9996
2 41175  55.0614 151.5080 0004992 304.5883  55.3418  1.70473286 34029
GSAT0211 (PRN E02)      
1 41549U 16030A   21165.41269973 -.00000006  00000-0  00000-0 0  9996
2 41549  56.0202 272.0160 0002833 313.5801  46.4330  1.70475439 31492
GSAT0210 (PRN E01)      
1 41550U 16030B   21165.11891293 -.00000006  00000-0  00000-0 0  9991
2 41550  56.0198 272.0256 0002672 270.0190  89.9863  1.70475567 31487
GSAT0207 (PRN E07)      
1 41859U 16069A   21165.36469029  .00000072  00000-0  00000-0 0  9992
2 41859  54.7218 151.7955 0005828 294.7556  65.1604  1.70473139 28221
GSAT0212 (PRN E03)      
1 41860U 16069B   21165.80469733  .00000073  00000-0  00000-0 0  9996
2 41860  54.7190 151.7816 0004569 311.1523  48.7857  1.70473165 28481
GSAT0213 (PRN E04)      
1 41861U 16069C   21165.58377124  .00000072  00000-0  00000-0 0  9993
2 41861  54.7216 151.7922 0005305 277.8043  82.1124  1.70473268 28341
GSAT0214 (PRN E05)      
1 41862U 16069D   21164.55763076  .00000070  00000-0  00000-0 0  9993
2 41862  54.7197 151.8157 0004457 282.1739  77.7523  1.70473247 28451
GSAT0215 (PRN E21)      
1 43055U 17079A   21165.63510174 -.00000005  00000-0  00000-0 0  9999
2 43055  55.9949 271.8479 0002185 260.1598  99.8529  1.70474632 21813
GSAT0216 (PRN E25)      
1 43056U 17079B   21164.75442951 -.00000007  00000-0  00000-0 0  9991
2 43056  55.9960 271.8717 0003876 268.5474  91.4432  1.70474782 21812
GSAT0217 (PRN E27)      
1 43057U 17079C   21164.97456344 -.00000006  00000-0  00000-0 0  9996
2 43057  55.9940 271.8659 0003329 282.7853  77.2133  1.70474739 21809
GSAT0218 (PRN E31)      
1 43058U 17079D   21165.19457386 -.00000006  00000-0  00000-0 0  9999
2 43058  55.9939 271.8573 0004409 264.6704  95.3158  1.70474715 21832
GSAT0221 (PRN E15)      
1 43564U 18060A   21165.67984157 -.00000066  00000-0  00000-0 0  9992
2 43564  57.0155  31.1614 0002458 298.6194  61.4178  1.70475615 17990
GSAT0222 (PRN E33)      
1 43565U 18060B   21164.13993460 -.00000069  00000-0  00000-0 0  9993
2 43565  57.0159  31.2032 0002493 315.1581  44.8858  1.70475670 18019
GSAT0219 (PRN E36)      
1 43566U 18060C   21165.53367922 -.00000066  00000-0  00000-0 0  9994
2 43566  57.0181  31.1672 0002210 320.9093  39.1369  1.70475611 18012
GSAT0220 (PRN E13)      
1 43567U 18060D   21163.99375193 -.00000069  00000-0  00000-0 0  9995
2 43567  57.0169  31.2098 0002265 310.8726  49.1720  1.70475646 17977
